{"type":"FeatureCollection","features":[{"type":"Feature","properties":{"class_id":12,"class_name":"other","source_crs":"EPSG:4326","geojson_crs":"EPSG:4326"},"geometry":{"type":"Polygon","coordinates":[[[107.25,40.85],[107.25,40.84],[107.26,40.84],[107.26,40.85],[107.25,40.85]]]}},{"type":"Feature","properties":{"class_id":5,"class_name":"developed_barren","source_crs":"EPSG:4326","geojson_crs":"EPSG:4326"},"geometry":{"type":"Polygon","coordinates":[[[107.26,40.85],[107.26,40.84],[107.27,40.84],[107.27,40.85],[107.26,40.85]]]}},{"type":"Feature","properties":{"class_id":10,"class_name":"cotton","source_crs":"EPSG:4326","geojson_crs":"EPSG:4326"},"geometry":{"type":"Polygon","coordinates":[[[107.27,40.85],[107.27,40.84],[107.28,40.84],[107.28,40.85],[107.27,40.85]]]}},{"type":"Feature","properties":{"class_id":2,"class_name":"corn","source_crs":"EPSG:4326","geojson_crs":"EPSG:4326"},"geometry":{"type":"Polygon","coordinates":[[[107.28,40.85],[107.28,40.84],[107.29,40.84],[107.29,40.85],[107.28,40.85]]]}},{"type":"Feature","properties":{"class_id":7,"class_name":"winter_wheat","source_crs":"EPSG:4326","geojson_crs":"EPSG:4326"},"geometry":{"type":"Polygon","coordinates":[[[107.29,40.85],[107.29,40.84],[107.3,40.84],[107.3,40.85],[107.29,40.85]]]}},{"type":"Feature","properties":{"class_id":0,"class_name":"natural_vegetation","source_crs":"EPSG:4326","geojson_crs":"EPSG:4326"},"geometry":{"type":"Polygon","coordinates":[[[107.3,40.85],[107.3,40.84],[107.31,40.84],[107.31,40.85],[107.3,40.85]]]}},{"type":"Feature","properties":{"class_id":8,"class_name":"alfalfa","source_crs":"EPSG:4326","geojson_crs":"EPSG:4326"},"geometry":{"type":"Polygon","coordinates":[[[107.31,40.85],[107.31,40.84],[107.32,40.84],[107.32,40.85],[107.31,40.85]]]}},{"type":"Feature","properties":{"class_id":0,"class_name":"natural_vegetation","source_crs":"EPSG:4326","geojson_crs":"EPSG:4326"},"geometry":{"type":"Polygon","coordinates":[[[107.32,40.85],[107.32,40.84],[107.33,40.84],[107.33,40.85],[107.32,40.85]]]}},{"type":"Feature","properties":{"class_id":5,"class_name":"developed_barren","source_crs":"EPSG:4326","geojson_crs":"EPSG:4326"},"geometry":{"type":"Polygon","coordinates":[[[107.33,40.85],[107.33,40.84],[107.34,40.84],[107.34,40.85],[107.33,40.85]]]}},{"type":"Feature","properties":{"class_id":11,"class_name":"sorghum","source_crs":"EPSG:4326","geojson_crs":"EPSG:4326"},"geometry":{"type":"Polygon","coordinates":[[[107.34,40.85],[107.34,40.84],[107.35,40.84],[107.35,40.85],[107.34,40.85]]]}},{"type":"Feature","properties":{"class_id":3,"class_name":"soybeans","source_crs":"EPSG:4326","geojson_crs":"EPSG:4326"},"geometry":{"type":"Polygon","coordinates":[[[107.35,40.85],[107.35,40.84],[107.36,40.84],[107.36,40.85],[107.35,40.85]]]}},{"type":"Feature","properties":{"class_id":8,"class_name":"alfalfa","source_crs":"EPSG:4326","geojson_crs":"EPSG:4326"},"geometry":{"type":"Polygon","coordinates":[[[107.36,40.85],[107.36,40.84],[107.37,40.84],[107.37,40.85],[107.36,40.85]]]}},{"type":"Feature","properties":{"class_id":3,"class_name":"soybeans","source_crs":"EPSG:4326","geojson_crs":"EPSG:4326"},"geometry":{"type":"Polygon","coordinates":[[[107.25,40.84],[107.25,40.83],[107.26,40.83],[107.26,40.84],[107.25,40.84]]]}},{"type":"Feature","properties":{"class_id":8,"class_name":"alfalfa","source_crs":"EPSG:4326","geojson_crs":"EPSG:4326"},"geometry":{"type":"Polygon","coordinates":[[[107.26,40.84],[107.26,40.83],[107.27,40.83],[107.27,40.84],[107.26,40.84]]]}},{"type":"Feature","properties":{"class_id":0,"class_name":"natural_vegetation","source_crs":"EPSG:4326","geojson_crs":"EPSG:4326"},"geometry":{"type":"Polygon","coordinates":[[[107.27,40.84],[107.27,40.83],[107.28,40.83],[107.28,40.84],[107.27,40.84]]]}},{"type":"Feature","properties":{"class_id":6,"class_name":"open_water","source_crs":"EPSG:4326","geojson_crs":"EPSG:4326"},"geometry":{"type":"Polygon","coordinates":[[[107.28,40.84],[107.28,40.83],[107.29,40.83],[107.29,40.84],[107.28,40.84]]]}},{"type":"Feature","properties":{"class_id":11,"class_name":"sorghum","source_crs":"EPSG:4326","geojson_crs":"EPSG:4326"},"geometry":{"type":"Polygon","coordinates":[[[107.29,40.84],[107.29,40.83],[107.3,40.83],[107.3,40.84],[107.29,40.84]]]}},{"type":"Feature","properties":{"class_id":3,"class_name":"soybeans","source_crs":"EPSG:4326","geojson_crs":"EPSG:4326"},"geometry":{"type":"Polygon","coordinates":[[[107.3,40.84],[107.3,40.83],[107.31,40.83],[107.31,40.84],[107.3,40.84]]]}},{"type":"Feature","properties":{"class_id":11,"class_name":"sorghum","source_crs":"EPSG:4326","geojson_crs":"EPSG:4326"},"geometry":{"type":"Polygon","coordinates":[[[107.31,40.84],[107.31,40.83],[107.32,40.83],[107.32,40.84],[107.31,40.84]]]}},{"type":"Feature","properties":{"class_id":4,"class_name":"wetlands","source_crs":"EPSG:4326","geojson_crs":"EPSG:4326"},"geometry":{"type":"Polygon","coordinates":[[[107.32,40.84],[107.32,40.83],[107.33,40.83],[107.33,40.84],[107.32,40.84]]]}},{"type":"Feature","properties":{"class_id":9,"class_name":"fallow_idle_cropland","source_crs":"EPSG:4326","geojson_crs":"EPSG:4326"},"geometry":{"type":"Polygon","coordinates":[[[107.33,40.84],[107.33,40.83],[107.34,40.83],[107.34,40.84],[107.33,40.84]]]}},{"type":"Feature","properties":{"class_id":1,"class_name":"forest","source_crs":"EPSG:4326","geojson_crs":"EPSG:4326"},"geometry":{"type":"Polygon","coordinates":[[[107.34,40.84],[107.34,40.83],[107.35,40.83],[107.35,40.84],[107.34,40.84]]]}},{"type":"Feature","properties":{"class_id":6,"class_name":"open_water","source_crs":"EPSG:4326","geojson_crs":"EPSG:4326"},"geometry":{"type":"Polygon","coordinates":[[[107.35,40.84],[107.35,40.83],[107.36,40.83],[107.36,40.84],[107.35,40.84]]]}},{"type":"Feature","properties":{"class_id":12,"class_name":"other","source_crs":"EPSG:4326","geojson_crs":"EPSG:4326"},"geometry":{"type":"Polygon","coordinates":[[[107.36,40.84],[107.36,40.83],[107.37,40.83],[107.37,40.84],[107.36,40.84]]]}},{"type":"Feature","properties":{"class_id":6,"class_name":"open_water","source_crs":"EPSG:4326","geojson_crs":"EPSG:4326"},"geometry":{"type":"Polygon","coordinates":[[[107.25,40.83],[107.25,40.82],[107.26,40.82],[107.26,40.83],[107.25,40.83]]]}},{"type":"Feature","properties":{"class_id":11,"class_name":"sorghum","source_crs":"EPSG:4326","geojson_crs":"EPSG:4326"},"geometry":{"type":"Polygon","coordinates":[[[107.26,40.83],[107.26,40.82],[107.27,40.82],[107.27,40.83],[107.26,40.83]]]}},{"type":"Feature","properties":{"class_id":4,"class_name":"wetlands","source_crs":"EPSG:4326","geojson_crs":"EPSG:4326"},"geometry":{"type":"Polygon","coordinates":[[[107.27,40.83],[107.27,40.82],[107.28,40.82],[107.28,40.83],[107.27,40.83]]]}},{"type":"Feature","properties":{"class_id":9,"class_name":"fallow_idle_cropland","source_crs":"EPSG:4326","geojson_crs":"EPSG:4326"},"geometry":{"type":"Polygon","coordinates":[[[107.28,40.83],[107.28,40.82],[107.29,40.82],[107.29,40.83],[107.28,40.83]]]}},{"type":"Feature","properties":{"class_id":1,"class_name":"forest","source_crs":"EPSG:4326","geojson_crs":"EPSG:4326"},"geometry":{"type":"Polygon","coordinates":[[[107.29,40.83],[107.29,40.82],[107.3,40.82],[107.3,40.83],[107.29,40.83]]]}},{"type":"Feature","properties":{"class_id":7,"class_name":"winter_wheat","source_crs":"EPSG:4326","geojson_crs":"EPSG:4326"},"geometry":{"type":"Polygon","coordinates":[[[107.3,40.83],[107.3,40.82],[107.31,40.82],[107.31,40.83],[107.3,40.83]]]}},{"type":"Feature","properties":{"class_id":2,"class_name":"corn","source_crs":"EPSG:4326","geojson_crs":"EPSG:4326"},"geometry":{"type":"Polygon","coordinates":[[[107.31,40.83],[107.31,40.82],[107.32,40.82],[107.32,40.83],[107.31,40.83]]]}},{"type":"Feature","properties":{"class_id":7,"class_name":"winter_wheat","source_crs":"EPSG:4326","geojson_crs":"EPSG:4326"},"geometry":{"type":"Polygon","coordinates":[[[107.32,40.83],[107.32,40.82],[107.33,40.82],[107.33,40.83],[107.32,40.83]]]}},{"type":"Feature","properties":{"class_id":12,"class_name":"other","source_crs":"EPSG:4326","geojson_crs":"EPSG:4326"},"geometry":{"type":"Polygon","coordinates":[[[107.33,40.83],[107.33,40.82],[107.34,40.82],[107.34,40.83],[107.33,40.83]]]}},{"type":"Feature","properties":{"class_id":5,"class_name":"developed_barren","source_crs":"EPSG:4326","geojson_crs":"EPSG:4326"},"geometry":{"type":"Polygon","coordinates":[[[107.34,40.83],[107.34,40.82],[107.35,40.82],[107.35,40.83],[107.34,40.83]]]}},{"type":"Feature","properties":{"class_id":10,"class_name":"cotton","source_crs":"EPSG:4326","geojson_crs":"EPSG:4326"},"geometry":{"type":"Polygon","coordinates":[[[107.35,40.83],[107.35,40.82],[107.36,40.82],[107.36,40.83],[107.35,40.83]]]}},{"type":"Feature","properties":{"class_id":2,"class_name":"corn","source_crs":"EPSG:4326","geojson_crs":"EPSG:4326"},"geometry":{"type":"Polygon","coordinates":[[[107.36,40.83],[107.36,40.82],[107.37,40.82],[107.37,40.83],[107.36,40.83]]]}},{"type":"Feature","properties":{"class_id":10,"class_name":"cotton","source_crs":"EPSG:4326","geojson_crs":"EPSG:4326"},"geometry":{"type":"Polygon","coordinates":[[[107.25,40.82],[107.25,40.81],[107.26,40.81],[107.26,40.82],[107.25,40.82]]]}},{"type":"Feature","properties":{"class_id":2,"class_name":"corn","source_crs":"EPSG:4326","geojson_crs":"EPSG:4326"},"geometry":{"type":"Polygon","coordinates":[[[107.26,40.82],[107.26,40.81],[107.27,40.81],[107.27,40.82],[107.26,40.82]]]}},{"type":"Feature","properties":{"class_id":7,"class_name":"winter_wheat","source_crs":"EPSG:4326","geojson_crs":"EPSG:4326"},"geometry":{"type":"Polygon","coordinates":[[[107.27,40.82],[107.27,40.81],[107.28,40.81],[107.28,40.82],[107.27,40.82]]]}},{"type":"Feature","properties":{"class_id":12,"class_name":"other","source_crs":"EPSG:4326","geojson_crs":"EPSG:4326"},"geometry":{"type":"Polygon","coordinates":[[[107.28,40.82],[107.28,40.81],[107.29,40.81],[107.29,40.82],[107.28,40.82]]]}},{"type":"Feature","properties":{"class_id":5,"class_name":"developed_barren","source_crs":"EPSG:4326","geojson_crs":"EPSG:4326"},"geometry":{"type":"Polygon","coordinates":[[[107.29,40.82],[107.29,40.81],[107.3,40.81],[107.3,40.82],[107.29,40.82]]]}},{"type":"Feature","properties":{"class_id":10,"class_name":"cotton","source_crs":"EPSG:4326","geojson_crs":"EPSG:4326"},"geometry":{"type":"Polygon","coordinates":[[[107.3,40.82],[107.3,40.81],[107.31,40.81],[107.31,40.82],[107.3,40.82]]]}},{"type":"Feature","properties":{"class_id":5,"class_name":"developed_barren","source_crs":"EPSG:4326","geojson_crs":"EPSG:4326"},"geometry":{"type":"Polygon","coordinates":[[[107.31,40.82],[107.31,40.81],[107.32,40.81],[107.32,40.82],[107.31,40.82]]]}},{"type":"Feature","properties":{"class_id":11,"class_name":"sorghum","source_crs":"EPSG:4326","geojson_crs":"EPSG:4326"},"geometry":{"type":"Polygon","coordinates":[[[107.32,40.82],[107.32,40.81],[107.33,40.81],[107.33,40.82],[107.32,40.82]]]}},{"type":"Feature","properties":{"class_id":3,"class_name":"soybeans","source_crs":"EPSG:4326","geojson_crs":"EPSG:4326"},"geometry":{"type":"Polygon","coordinates":[[[107.33,40.82],[107.33,40.81],[107.34,40.81],[107.34,40.82],[107.33,40.82]]]}},{"type":"Feature","properties":{"class_id":8,"class_name":"alfalfa","source_crs":"EPSG:4326","geojson_crs":"EPSG:4326"},"geometry":{"type":"Polygon","coordinates":[[[107.34,40.82],[107.34,40.81],[107.35,40.81],[107.35,40.82],[107.34,40.82]]]}},{"type":"Feature","properties":{"class_id":0,"class_name":"natural_vegetation","source_crs":"EPSG:4326","geojson_crs":"EPSG:4326"},"geometry":{"type":"Polygon","coordinates":[[[107.35,40.82],[107.35,40.81],[107.36,40.81],[107.36,40.82],[107.35,40.82]]]}},{"type":"Feature","properties":{"class_id":6,"class_name":"open_water","source_crs":"EPSG:4326","geojson_crs":"EPSG:4326"},"geometry":{"type":"Polygon","coordinates":[[[107.36,40.82],[107.36,40.81],[107.37,40.81],[107.37,40.82],[107.36,40.82]]]}},{"type":"Feature","properties":{"class_id":2,"class_name":"corn","source_crs":"EPSG:4326","geojson_crs":"EPSG:4326"},"geometry":{"type":"Polygon","coordinates":[[[107.25,40.81],[107.25,40.800000000000004],[107.26,40.800000000000004],[107.26,40.81],[107.25,40.81]]]}},{"type":"Feature","properties":{"class_id":7,"class_name":"winter_wheat","source_crs":"EPSG:4326","geojson_crs":"EPSG:4326"},"geometry":{"type":"Polygon","coordinates":[[[107.26,40.81],[107.26,40.800000000000004],[107.27,40.800000000000004],[107.27,40.81],[107.26,40.81]]]}},{"type":"Feature","properties":{"class_id":0,"class_name":"natural_vegetation","source_crs":"EPSG:4326","geojson_crs":"EPSG:4326"},"geometry":{"type":"Polygon","coordinates":[[[107.27,40.81],[107.27,40.800000000000004],[107.28,40.800000000000004],[107.28,40.81],[107.27,40.81]]]}},{"type":"Feature","properties":{"class_id":5,"class_name":"developed_barren","source_crs":"EPSG:4326","geojson_crs":"EPSG:4326"},"geometry":{"type":"Polygon","coordinates":[[[107.28,40.81],[107.28,40.800000000000004],[107.29,40.800000000000004],[107.29,40.81],[107.28,40.81]]]}},{"type":"Feature","properties":{"class_id":10,"class_name":"cotton","source_crs":"EPSG:4326","geojson_crs":"EPSG:4326"},"geometry":{"type":"Polygon","coordinates":[[[107.29,40.81],[107.29,40.800000000000004],[107.3,40.800000000000004],[107.3,40.81],[107.29,40.81]]]}},{"type":"Feature","properties":{"class_id":2,"class_name":"corn","source_crs":"EPSG:4326","geojson_crs":"EPSG:4326"},"geometry":{"type":"Polygon","coordinates":[[[107.3,40.81],[107.3,40.800000000000004],[107.31,40.800000000000004],[107.31,40.81],[107.3,40.81]]]}},{"type":"Feature","properties":{"class_id":11,"class_name":"sorghum","source_crs":"EPSG:4326","geojson_crs":"EPSG:4326"},"geometry":{"type":"Polygon","coordinates":[[[107.31,40.81],[107.31,40.800000000000004],[107.32,40.800000000000004],[107.32,40.81],[107.31,40.81]]]}},{"type":"Feature","properties":{"class_id":3,"class_name":"soybeans","source_crs":"EPSG:4326","geojson_crs":"EPSG:4326"},"geometry":{"type":"Polygon","coordinates":[[[107.32,40.81],[107.32,40.800000000000004],[107.33,40.800000000000004],[107.33,40.81],[107.32,40.81]]]}},{"type":"Feature","properties":{"class_id":8,"class_name":"alfalfa","source_crs":"EPSG:4326","geojson_crs":"EPSG:4326"},"geometry":{"type":"Polygon","coordinates":[[[107.33,40.81],[107.33,40.800000000000004],[107.34,40.800000000000004],[107.34,40.81],[107.33,40.81]]]}},{"type":"Feature","properties":{"class_id":1,"class_name":"forest","source_crs":"EPSG:4326","geojson_crs":"EPSG:4326"},"geometry":{"type":"Polygon","coordinates":[[[107.34,40.81],[107.34,40.800000000000004],[107.35,40.800000000000004],[107.35,40.81],[107.34,40.81]]]}},{"type":"Feature","properties":{"class_id":6,"class_name":"open_water","source_crs":"EPSG:4326","geojson_crs":"EPSG:4326"},"geometry":{"type":"Polygon","coordinates":[[[107.35,40.81],[107.35,40.800000000000004],[107.36,40.800000000000004],[107.36,40.81],[107.35,40.81]]]}},{"type":"Feature","properties":{"class_id":11,"class_name":"sorghum","source_crs":"EPSG:4326","geojson_crs":"EPSG:4326"},"geometry":{"type":"Polygon","coordinates":[[[107.36,40.81],[107.36,40.800000000000004],[107.37,40.800000000000004],[107.37,40.81],[107.36,40.81]]]}},{"type":"Feature","properties":{"class_id":6,"class_name":"open_water","source_crs":"EPSG:4326","geojson_crs":"EPSG:4326"},"geometry":{"type":"Polygon","coordinates":[[[107.25,40.800000000000004],[107.25,40.79],[107.26,40.79],[107.26,40.800000000000004],[107.25,40.800000000000004]]]}},{"type":"Feature","properties":{"class_id":11,"class_name":"sorghum","source_crs":"EPSG:4326","geojson_crs":"EPSG:4326"},"geometry":{"type":"Polygon","coordinates":[[[107.26,40.800000000000004],[107.26,40.79],[107.27,40.79],[107.27,40.800000000000004],[107.26,40.800000000000004]]]}},{"type":"Feature","properties":{"class_id":3,"class_name":"soybeans","source_crs":"EPSG:4326","geojson_crs":"EPSG:4326"},"geometry":{"type":"Polygon","coordinates":[[[107.27,40.800000000000004],[107.27,40.79],[107.28,40.79],[107.28,40.800000000000004],[107.27,40.800000000000004]]]}},{"type":"Feature","properties":{"class_id":8,"class_name":"alfalfa","source_crs":"EPSG:4326","geojson_crs":"EPSG:4326"},"geometry":{"type":"Polygon","coordinates":[[[107.28,40.800000000000004],[107.28,40.79],[107.29,40.79],[107.29,40.800000000000004],[107.28,40.800000000000004]]]}},{"type":"Feature","properties":{"class_id":1,"class_name":"forest","source_crs":"EPSG:4326","geojson_crs":"EPSG:4326"},"geometry":{"type":"Polygon","coordinates":[[[107.29,40.800000000000004],[107.29,40.79],[107.3,40.79],[107.3,40.800000000000004],[107.29,40.800000000000004]]]}},{"type":"Feature","properties":{"class_id":6,"class_name":"open_water","source_crs":"EPSG:4326","geojson_crs":"EPSG:4326"},"geometry":{"type":"Polygon","coordinates":[[[107.3,40.800000000000004],[107.3,40.79],[107.31,40.79],[107.31,40.800000000000004],[107.3,40.800000000000004]]]}},{"type":"Feature","properties":{"class_id":1,"class_name":"forest","source_crs":"EPSG:4326","geojson_crs":"EPSG:4326"},"geometry":{"type":"Polygon","coordinates":[[[107.31,40.800000000000004],[107.31,40.79],[107.32,40.79],[107.32,40.800000000000004],[107.31,40.800000000000004]]]}},{"type":"Feature","properties":{"class_id":6,"class_name":"open_water","source_crs":"EPSG:4326","geojson_crs":"EPSG:4326"},"geometry":{"type":"Polygon","coordinates":[[[107.32,40.800000000000004],[107.32,40.79],[107.33,40.79],[107.33,40.800000000000004],[107.32,40.800000000000004]]]}},{"type":"Feature","properties":{"class_id":12,"class_name":"other","source_crs":"EPSG:4326","geojson_crs":"EPSG:4326"},"geometry":{"type":"Polygon","coordinates":[[[107.33,40.800000000000004],[107.33,40.79],[107.34,40.79],[107.34,40.800000000000004],[107.33,40.800000000000004]]]}},{"type":"Feature","properties":{"class_id":4,"class_name":"wetlands","source_crs":"EPSG:4326","geojson_crs":"EPSG:4326"},"geometry":{"type":"Polygon","coordinates":[[[107.34,40.800000000000004],[107.34,40.79],[107.35,40.79],[107.35,40.800000000000004],[107.34,40.800000000000004]]]}},{"type":"Feature","properties":{"class_id":9,"class_name":"fallow_idle_cropland","source_crs":"EPSG:4326","geojson_crs":"EPSG:4326"},"geometry":{"type":"Polygon","coordinates":[[[107.35,40.800000000000004],[107.35,40.79],[107.36,40.79],[107.36,40.800000000000004],[107.35,40.800000000000004]]]}},{"type":"Feature","properties":{"class_id":2,"class_name":"corn","source_crs":"EPSG:4326","geojson_crs":"EPSG:4326"},"geometry":{"type":"Polygon","coordinates":[[[107.36,40.800000000000004],[107.36,40.79],[107.37,40.79],[107.37,40.800000000000004],[107.36,40.800000000000004]]]}},{"type":"Feature","properties":{"class_id":9,"class_name":"fallow_idle_cropland","source_crs":"EPSG:4326","geojson_crs":"EPSG:4326"},"geometry":{"type":"Polygon","coordinates":[[[107.25,40.79],[107.25,40.78],[107.26,40.78],[107.26,40.79],[107.25,40.79]]]}},{"type":"Feature","properties":{"class_id":1,"class_name":"forest","source_crs":"EPSG:4326","geojson_crs":"EPSG:4326"},"geometry":{"type":"Polygon","coordinates":[[[107.26,40.79],[107.26,40.78],[107.27,40.78],[107.27,40.79],[107.26,40.79]]]}},{"type":"Feature","properties":{"class_id":7,"class_name":"winter_wheat","source_crs":"EPSG:4326","geojson_crs":"EPSG:4326"},"geometry":{"type":"Polygon","coordinates":[[[107.27,40.79],[107.27,40.78],[107.28,40.78],[107.28,40.79],[107.27,40.79]]]}},{"type":"Feature","properties":{"class_id":12,"class_name":"other","source_crs":"EPSG:4326","geojson_crs":"EPSG:4326"},"geometry":{"type":"Polygon","coordinates":[[[107.28,40.79],[107.28,40.78],[107.29,40.78],[107.29,40.79],[107.28,40.79]]]}},{"type":"Feature","properties":{"class_id":4,"class_name":"wetlands","source_crs":"EPSG:4326","geojson_crs":"EPSG:4326"},"geometry":{"type":"Polygon","coordinates":[[[107.29,40.79],[107.29,40.78],[107.3,40.78],[107.3,40.79],[107.29,40.79]]]}},{"type":"Feature","properties":{"class_id":9,"class_name":"fallow_idle_cropland","source_crs":"EPSG:4326","geojson_crs":"EPSG:4326"},"geometry":{"type":"Polygon","coordinates":[[[107.3,40.79],[107.3,40.78],[107.31,40.78],[107.31,40.79],[107.3,40.79]]]}},{"type":"Feature","properties":{"class_id":5,"class_name":"developed_barren","source_crs":"EPSG:4326","geojson_crs":"EPSG:4326"},"geometry":{"type":"Polygon","coordinates":[[[107.31,40.79],[107.31,40.78],[107.32,40.78],[107.32,40.79],[107.31,40.79]]]}},{"type":"Feature","properties":{"class_id":10,"class_name":"cotton","source_crs":"EPSG:4326","geojson_crs":"EPSG:4326"},"geometry":{"type":"Polygon","coordinates":[[[107.32,40.79],[107.32,40.78],[107.33,40.78],[107.33,40.79],[107.32,40.79]]]}},{"type":"Feature","properties":{"class_id":2,"class_name":"corn","source_crs":"EPSG:4326","geojson_crs":"EPSG:4326"},"geometry":{"type":"Polygon","coordinates":[[[107.33,40.79],[107.33,40.78],[107.34,40.78],[107.34,40.79],[107.33,40.79]]]}},{"type":"Feature","properties":{"class_id":8,"class_name":"alfalfa","source_crs":"EPSG:4326","geojson_crs":"EPSG:4326"},"geometry":{"type":"Polygon","coordinates":[[[107.34,40.79],[107.34,40.78],[107.35,40.78],[107.35,40.79],[107.34,40.79]]]}},{"type":"Feature","properties":{"class_id":0,"class_name":"natural_vegetation","source_crs":"EPSG:4326","geojson_crs":"EPSG:4326"},"geometry":{"type":"Polygon","coordinates":[[[107.35,40.79],[107.35,40.78],[107.36,40.78],[107.36,40.79],[107.35,40.79]]]}},{"type":"Feature","properties":{"class_id":5,"class_name":"developed_barren","source_crs":"EPSG:4326","geojson_crs":"EPSG:4326"},"geometry":{"type":"Polygon","coordinates":[[[107.36,40.79],[107.36,40.78],[107.37,40.78],[107.37,40.79],[107.36,40.79]]]}},{"type":"Feature","properties":{"class_id":12,"class_name":"other","source_crs":"EPSG:4326","geojson_crs":"EPSG:4326"},"geometry":{"type":"Polygon","coordinates":[[[107.25,40.78],[107.25,40.77],[107.26,40.77],[107.26,40.78],[107.25,40.78]]]}},{"type":"Feature","properties":{"class_id":5,"class_name":"developed_barren","source_crs":"EPSG:4326","geojson_crs":"EPSG:4326"},"geometry":{"type":"Polygon","coordinates":[[[107.26,40.78],[107.26,40.77],[107.27,40.77],[107.27,40.78],[107.26,40.78]]]}},{"type":"Feature","properties":{"class_id":10,"class_name":"cotton","source_crs":"EPSG:4326","geojson_crs":"EPSG:4326"},"geometry":{"type":"Polygon","coordinates":[[[107.27,40.78],[107.27,40.77],[107.28,40.77],[107.28,40.78],[107.27,40.78]]]}},{"type":"Feature","properties":{"class_id":2,"class_name":"corn","source_crs":"EPSG:4326","geojson_crs":"EPSG:4326"},"geometry":{"type":"Polygon","coordinates":[[[107.28,40.78],[107.28,40.77],[107.29,40.77],[107.29,40.78],[107.28,40.78]]]}},{"type":"Feature","properties":{"class_id":8,"class_name":"alfalfa","source_crs":"EPSG:4326","geojson_crs":"EPSG:4326"},"geometry":{"type":"Polygon","coordinates":[[[107.29,40.78],[107.29,40.77],[107.3,40.77],[107.3,40.78],[107.29,40.78]]]}},{"type":"Feature","properties":{"class_id":0,"class_name":"natural_vegetation","source_crs":"EPSG:4326","geojson_crs":"EPSG:4326"},"geometry":{"type":"Polygon","coordinates":[[[107.3,40.78],[107.3,40.77],[107.31,40.77],[107.31,40.78],[107.3,40.78]]]}},{"type":"Feature","properties":{"class_id":8,"class_name":"alfalfa","source_crs":"EPSG:4326","geojson_crs":"EPSG:4326"},"geometry":{"type":"Polygon","coordinates":[[[107.31,40.78],[107.31,40.77],[107.32,40.77],[107.32,40.78],[107.31,40.78]]]}},{"type":"Feature","properties":{"class_id":0,"class_name":"natural_vegetation","source_crs":"EPSG:4326","geojson_crs":"EPSG:4326"},"geometry":{"type":"Polygon","coordinates":[[[107.32,40.78],[107.32,40.77],[107.33,40.77],[107.33,40.78],[107.32,40.78]]]}},{"type":"Feature","properties":{"class_id":6,"class_name":"open_water","source_crs":"EPSG:4326","geojson_crs":"EPSG:4326"},"geometry":{"type":"Polygon","coordinates":[[[107.33,40.78],[107.33,40.77],[107.34,40.77],[107.34,40.78],[107.33,40.78]]]}},{"type":"Feature","properties":{"class_id":11,"class_name":"sorghum","source_crs":"EPSG:4326","geojson_crs":"EPSG:4326"},"geometry":{"type":"Polygon","coordinates":[[[107.34,40.78],[107.34,40.77],[107.35,40.77],[107.35,40.78],[107.34,40.78]]]}},{"type":"Feature","properties":{"class_id":3,"class_name":"soybeans","source_crs":"EPSG:4326","geojson_crs":"EPSG:4326"},"geometry":{"type":"Polygon","coordinates":[[[107.35,40.78],[107.35,40.77],[107.36,40.77],[107.36,40.78],[107.35,40.78]]]}},{"type":"Feature","properties":{"class_id":9,"class_name":"fallow_idle_cropland","source_crs":"EPSG:4326","geojson_crs":"EPSG:4326"},"geometry":{"type":"Polygon","coordinates":[[[107.36,40.78],[107.36,40.77],[107.37,40.77],[107.37,40.78],[107.36,40.78]]]}},{"type":"Feature","properties":{"class_id":3,"class_name":"soybeans","source_crs":"EPSG:4326","geojson_crs":"EPSG:4326"},"geometry":{"type":"Polygon","coordinates":[[[107.25,40.77],[107.25,40.76],[107.26,40.76],[107.26,40.77],[107.25,40.77]]]}},{"type":"Feature","properties":{"class_id":8,"class_name":"alfalfa","source_crs":"EPSG:4326","geojson_crs":"EPSG:4326"},"geometry":{"type":"Polygon","coordinates":[[[107.26,40.77],[107.26,40.76],[107.27,40.76],[107.27,40.77],[107.26,40.77]]]}},{"type":"Feature","properties":{"class_id":0,"class_name":"natural_vegetation","source_crs":"EPSG:4326","geojson_crs":"EPSG:4326"},"geometry":{"type":"Polygon","coordinates":[[[107.27,40.77],[107.27,40.76],[107.28,40.76],[107.28,40.77],[107.27,40.77]]]}},{"type":"Feature","properties":{"class_id":6,"class_name":"open_water","source_crs":"EPSG:4326","geojson_crs":"EPSG:4326"},"geometry":{"type":"Polygon","coordinates":[[[107.28,40.77],[107.28,40.76],[107.29,40.76],[107.29,40.77],[107.28,40.77]]]}},{"type":"Feature","properties":{"class_id":11,"class_name":"sorghum","source_crs":"EPSG:4326","geojson_crs":"EPSG:4326"},"geometry":{"type":"Polygon","coordinates":[[[107.29,40.77],[107.29,40.76],[107.3,40.76],[107.3,40.77],[107.29,40.77]]]}},{"type":"Feature","properties":{"class_id":3,"class_name":"soybeans","source_crs":"EPSG:4326","geojson_crs":"EPSG:4326"},"geometry":{"type":"Polygon","coordinates":[[[107.3,40.77],[107.3,40.76],[107.31,40.76],[107.31,40.77],[107.3,40.77]]]}},{"type":"Feature","properties":{"class_id":12,"class_name":"other","source_crs":"EPSG:4326","geojson_crs":"EPSG:4326"},"geometry":{"type":"Polygon","coordinates":[[[107.31,40.77],[107.31,40.76],[107.32,40.76],[107.32,40.77],[107.31,40.77]]]}},{"type":"Feature","properties":{"class_id":4,"class_name":"wetlands","source_crs":"EPSG:4326","geojson_crs":"EPSG:4326"},"geometry":{"type":"Polygon","coordinates":[[[107.32,40.77],[107.32,40.76],[107.33,40.76],[107.33,40.77],[107.32,40.77]]]}},{"type":"Feature","properties":{"class_id":9,"class_name":"fallow_idle_cropland","source_crs":"EPSG:4326","geojson_crs":"EPSG:4326"},"geometry":{"type":"Polygon","coordinates":[[[107.33,40.77],[107.33,40.76],[107.34,40.76],[107.34,40.77],[107.33,40.77]]]}},{"type":"Feature","properties":{"class_id":1,"class_name":"forest","source_crs":"EPSG:4326","geojson_crs":"EPSG:4326"},"geometry":{"type":"Polygon","coordinates":[[[107.34,40.77],[107.34,40.76],[107.35,40.76],[107.35,40.77],[107.34,40.77]]]}},{"type":"Feature","properties":{"class_id":7,"class_name":"winter_wheat","source_crs":"EPSG:4326","geojson_crs":"EPSG:4326"},"geometry":{"type":"Polygon","coordinates":[[[107.35,40.77],[107.35,40.76],[107.36,40.76],[107.36,40.77],[107.35,40.77]]]}},{"type":"Feature","properties":{"class_id":12,"class_name":"other","source_crs":"EPSG:4326","geojson_crs":"EPSG:4326"},"geometry":{"type":"Polygon","coordinates":[[[107.36,40.77],[107.36,40.76],[107.37,40.76],[107.37,40.77],[107.36,40.77]]]}},{"type":"Feature","properties":{"class_id":6,"class_name":"open_water","source_crs":"EPSG:4326","geojson_crs":"EPSG:4326"},"geometry":{"type":"Polygon","coordinates":[[[107.25,40.76],[107.25,40.75],[107.26,40.75],[107.26,40.76],[107.25,40.76]]]}},{"type":"Feature","properties":{"class_id":12,"class_name":"other","source_crs":"EPSG:4326","geojson_crs":"EPSG:4326"},"geometry":{"type":"Polygon","coordinates":[[[107.26,40.76],[107.26,40.75],[107.27,40.75],[107.27,40.76],[107.26,40.76]]]}},{"type":"Feature","properties":{"class_id":4,"class_name":"wetlands","source_crs":"EPSG:4326","geojson_crs":"EPSG:4326"},"geometry":{"type":"Polygon","coordinates":[[[107.27,40.76],[107.27,40.75],[107.28,40.75],[107.28,40.76],[107.27,40.76]]]}},{"type":"Feature","properties":{"class_id":9,"class_name":"fallow_idle_cropland","source_crs":"EPSG:4326","geojson_crs":"EPSG:4326"},"geometry":{"type":"Polygon","coordinates":[[[107.28,40.76],[107.28,40.75],[107.29,40.75],[107.29,40.76],[107.28,40.76]]]}},{"type":"Feature","properties":{"class_id":2,"class_name":"corn","source_crs":"EPSG:4326","geojson_crs":"EPSG:4326"},"geometry":{"type":"Polygon","coordinates":[[[107.29,40.76],[107.29,40.75],[107.3,40.75],[107.3,40.76],[107.29,40.76]]]}},{"type":"Feature","properties":{"class_id":7,"class_name":"winter_wheat","source_crs":"EPSG:4326","geojson_crs":"EPSG:4326"},"geometry":{"type":"Polygon","coordinates":[[[107.3,40.76],[107.3,40.75],[107.31,40.75],[107.31,40.76],[107.3,40.76]]]}},{"type":"Feature","properties":{"class_id":2,"class_name":"corn","source_crs":"EPSG:4326","geojson_crs":"EPSG:4326"},"geometry":{"type":"Polygon","coordinates":[[[107.31,40.76],[107.31,40.75],[107.32,40.75],[107.32,40.76],[107.31,40.76]]]}},{"type":"Feature","properties":{"class_id":7,"class_name":"winter_wheat","source_crs":"EPSG:4326","geojson_crs":"EPSG:4326"},"geometry":{"type":"Polygon","coordinates":[[[107.32,40.76],[107.32,40.75],[107.33,40.75],[107.33,40.76],[107.32,40.76]]]}},{"type":"Feature","properties":{"class_id":0,"class_name":"natural_vegetation","source_crs":"EPSG:4326","geojson_crs":"EPSG:4326"},"geometry":{"type":"Polygon","coordinates":[[[107.33,40.76],[107.33,40.75],[107.34,40.75],[107.34,40.76],[107.33,40.76]]]}},{"type":"Feature","properties":{"class_id":5,"class_name":"developed_barren","source_crs":"EPSG:4326","geojson_crs":"EPSG:4326"},"geometry":{"type":"Polygon","coordinates":[[[107.34,40.76],[107.34,40.75],[107.35,40.75],[107.35,40.76],[107.34,40.76]]]}},{"type":"Feature","properties":{"class_id":10,"class_name":"cotton","source_crs":"EPSG:4326","geojson_crs":"EPSG:4326"},"geometry":{"type":"Polygon","coordinates":[[[107.35,40.76],[107.35,40.75],[107.36,40.75],[107.36,40.76],[107.35,40.76]]]}},{"type":"Feature","properties":{"class_id":2,"class_name":"corn","source_crs":"EPSG:4326","geojson_crs":"EPSG:4326"},"geometry":{"type":"Polygon","coordinates":[[[107.36,40.76],[107.36,40.75],[107.37,40.75],[107.37,40.76],[107.36,40.76]]]}}]}